{"type": "FeatureCollection", "features": [ {"type": "Feature", "properties": {"norad_id": 66880, "name": "STARLINK-35844", "group": "last-30-days", "lat": 52.17565098477653, "lon": 105.31438830163111, "alt_km": 404.2281846711712, "timestamp": "2025-12-27T13:34:48.008021+00:00", "meta": {"OBJECT_NAME": "STARLINK-35844", "OBJECT_ID": "2025-283C", "EPOCH": "2025-12-27T06:00:02.000160", "MEAN_MOTION": 15.53016704, "ECCENTRICITY": 0.00013519, "INCLINATION": 53.1598, "RA_OF_ASC_NODE": 1.7806, "ARG_OF_PERICENTER": 71.5951, "MEAN_ANOMALY": 61.6997, "EPHEMERIS_TYPE": 0, "CLASSIFICATION_TYPE": "U", "NORAD_CAT_ID": 66880, "ELEMENT_SET_NO": 999, "REV_AT_EPOCH": 476, "BSTAR": -0.03616266, "MEAN_MOTION_DOT": -0.02047663, "MEAN_MOTION_DDOT": 0}, "tle": {"line1": "1 66880U 25283C   25361.25002315 -.02047663  00000+0 -36163-1 0  9992", "line2": "2 66880  53.1598   1.7806 0001351  71.5951  61.6997 15.53016704  4768"}}, "geometry": {"type": "Point", "coordinates": [105.31438830163111, 52.17565098477653]}}, {"type": "Feature", "properties": {"norad_id": 66881, "name": "STARLINK-35860", "group": "last-30-days", "lat": 51.222432103198, "lon": 111.3123474030035, "alt_km": 404.3460399831765, "timestamp": "2025-12-27T13:34:48.008030+00:00", "meta": {"OBJECT_NAME": "STARLINK-35860", "OBJECT_ID": "2025-283D", "EPOCH": "2025-12-27T06:00:02.000160", "MEAN_MOTION": 15.53014855, "ECCENTRICITY": 0.00014358, "INCLINATION": 53.1599, "RA_OF_ASC_NODE": 1.7716, "ARG_OF_PERICENTER": 70.4022, "MEAN_ANOMALY": 66.7282, "EPHEMERIS_TYPE": 0, "CLASSIFICATION_TYPE": "U", "NORAD_CAT_ID": 66881, "ELEMENT_SET_NO": 999, "REV_AT_EPOCH": 476, "BSTAR": -0.036139535, "MEAN_MOTION_DOT": -0.02046423, "MEAN_MOTION_DDOT": 0}, "tle": {"line1": "1 66881U 25283D   25361.25002315 -.02046423  00000+0 -36140-1 0  9991", "line2": "2 66881  53.1599   1.7716 0001435  70.4022  66.7282 15.53014855  4768"}}, "geometry": {"type": "Point", "coordinates": [111.3123474030035, 51.222432103198]}}, {"type": "Feature", "properties": {"norad_id": 66882, "name": "STARLINK-35912", "group": "last-30-days", "lat": 50.63477451890884, "lon": 114.20769232738311, "alt_km": 404.41185585340827, "timestamp": "2025-12-27T13:34:48.008040+00:00", "meta": {"OBJECT_NAME": "STARLINK-35912", "OBJECT_ID": "2025-283E", "EPOCH": "2025-12-27T06:00:02.000160", "MEAN_MOTION": 15.53018629, "ECCENTRICITY": 0.00014498, "INCLINATION": 53.16, "RA_OF_ASC_NODE": 1.7688, "ARG_OF_PERICENTER": 72.6046, "MEAN_ANOMALY": 66.438, "EPHEMERIS_TYPE": 0, "CLASSIFICATION_TYPE": "U", "NORAD_CAT_ID": 66882, "ELEMENT_SET_NO": 999, "REV_AT_EPOCH": 476, "BSTAR": -0.036174969, "MEAN_MOTION_DOT": -0.02048474, "MEAN_MOTION_DDOT": 0}, "tle": {"line1": "1 66882U 25283E   25361.25002315 -.02048474  00000+0 -36175-1 0  9998", "line2": "2 66882  53.1600   1.7688 0001449  72.6046  66.4380 15.53018629  4764"}}, "geometry": {"type": "Point", "coordinates": [114.20769232738311, 50.63477451890884]}}, {"type": "Feature", "properties": {"norad_id": 66883, "name": "STARLINK-35947", "group": "last-30-days", "lat": 49.97605968639205, "lon": 117.02932800803839, "alt_km": 404.45242908597356, "timestamp": "2025-12-27T13:34:48.008052+00:00", "meta": {"OBJECT_NAME": "STARLINK-35947", "OBJECT_ID": "2025-283F", "EPOCH": "2025-12-27T06:00:02.000160", "MEAN_MOTION": 15.5301418, "ECCENTRICITY": 0.00014661, "INCLINATION": 53.1598, "RA_OF_ASC_NODE": 1.7652, "ARG_OF_PERICENTER": 82.9612, "MEAN_ANOMALY": 58.0064, "EPHEMERIS_TYPE": 0, "CLASSIFICATION_TYPE": "U", "NORAD_CAT_ID": 66883, "ELEMENT_SET_NO": 999, "REV_AT_EPOCH": 481, "BSTAR": -0.036195529, "MEAN_MOTION_DOT": -0.02049226, "MEAN_MOTION_DDOT": 0}, "tle": {"line1": "1 66883U 25283F   25361.25002315 -.02049226  00000+0 -36196-1 0  9998", "line2": "2 66883  53.1598   1.7652 0001466  82.9612  58.0064 15.53014180  4814"}}, "geometry": {"type": "Point", "coordinates": [117.02932800803839, 49.97605968639205]}}, {"type": "Feature", "properties": {"norad_id": 66884, "name": "STARLINK-36057", "group": "last-30-days", "lat": 48.46240318825408, "lon": 122.42782402524553, "alt_km": 404.8885162372726, "timestamp": "2025-12-27T13:34:48.008064+00:00", "meta": {"OBJECT_NAME": "STARLINK-36057", "OBJECT_ID": "2025-283G", "EPOCH": "2025-12-27T06:00:02.000160", "MEAN_MOTION": 15.53015264, "ECCENTRICITY": 0.00012742, "INCLINATION": 53.1595, "RA_OF_ASC_NODE": 1.7568, "ARG_OF_PERICENTER": 70.7127, "MEAN_ANOMALY": 74.0853, "EPHEMERIS_TYPE": 0, "CLASSIFICATION_TYPE": "U", "NORAD_CAT_ID": 66884, "ELEMENT_SET_NO": 999, "REV_AT_EPOCH": 476, "BSTAR": -0.036144869, "MEAN_MOTION_DOT": -0.02046621, "MEAN_MOTION_DDOT": 0}, "tle": {"line1": "1 66884U 25283G   25361.25002315 -.02046621  00000+0 -36145-1 0  9999", "line2": "2 66884  53.1595   1.7568 0001274  70.7127  74.0853 15.53015264  4763"}}, "geometry": {"type": "Point", "coordinates": [122.42782402524553, 48.46240318825408]}}, {"type": "Feature", "properties": {"norad_id": 66885, "name": "STARLINK-35954", "group": "last-30-days", "lat": 49.25048105207916, "lon": 119.77044772097368, "alt_km": 404.75421903973256, "timestamp": "2025-12-27T13:34:48.008075+00:00", "meta": {"OBJECT_NAME": "STARLINK-35954", "OBJECT_ID": "2025-283H", "EPOCH": "2025-12-27T06:00:02.000160", "MEAN_MOTION": 15.53013882, "ECCENTRICITY": 0.00013158, "INCLINATION": 53.1597, "RA_OF_ASC_NODE": 1.7602, "ARG_OF_PERICENTER": 68.7839, "MEAN_ANOMALY": 74.0983, "EPHEMERIS_TYPE": 0, "CLASSIFICATION_TYPE": "U", "NORAD_CAT_ID": 66885, "ELEMENT_SET_NO": 999, "REV_AT_EPOCH": 476, "BSTAR": -0.03612879, "MEAN_MOTION_DOT": -0.02045742, "MEAN_MOTION_DDOT": 0}, "tle": {"line1": "1 66885U 25283H   25361.25002315 -.02045742  00000+0 -36129-1 0  9995", "line2": "2 66885  53.1597   1.7602 0001315  68.7839  74.0983 15.53013882  4766"}}, "geometry": {"type": "Point", "coordinates": [119.77044772097368, 49.25048105207916]}}, {"type": "Feature", "properties": {"norad_id": 66886, "name": "STARLINK-35900", "group": "last-30-days", "lat": 47.615027443453144, "lon": 124.99963800428675, "alt_km": 404.96398926094207, "timestamp": "2025-12-27T13:34:48.008096+00:00", "meta": {"OBJECT_NAME": "STARLINK-35900", "OBJECT_ID": "2025-283J", "EPOCH": "2025-12-27T06:00:02.000160", "MEAN_MOTION": 15.53016305, "ECCENTRICITY": 0.00013762, "INCLINATION": 53.1595, "RA_OF_ASC_NODE": 1.7519, "ARG_OF_PERICENTER": 71.6593, "MEAN_ANOMALY": 75.0536, "EPHEMERIS_TYPE": 0, "CLASSIFICATION_TYPE": "U", "NORAD_CAT_ID": 66886, "ELEMENT_SET_NO": 999, "REV_AT_EPOCH": 476, "BSTAR": -0.036151611, "MEAN_MOTION_DOT": -0.02047094, "MEAN_MOTION_DDOT": 0}, "tle": {"line1": "1 66886U 25283J   25361.25002315 -.02047094  00000+0 -36152-1 0  9994", "line2": "2 66886  53.1595   1.7519 0001376  71.6593  75.0536 15.53016305  4767"}}, "geometry": {"type": "Point", "coordinates": [124.99963800428675, 47.615027443453144]}}, {"type": "Feature", "properties": {"norad_id": 66887, "name": "STARLINK-35925", "group": "last-30-days", "lat": 46.711570591578095, "lon": 127.48862135514032, "alt_km": 405.11205783955484, "timestamp": "2025-12-27T13:34:48.008109+00:00", "meta": {"OBJECT_NAME": "STARLINK-35925", "OBJECT_ID": "2025-283K", "EPOCH": "2025-12-27T06:00:02.000160", "MEAN_MOTION": 15.53015591, "ECCENTRICITY": 0.0001367, "INCLINATION": 53.1595, "RA_OF_ASC_NODE": 1.7483, "ARG_OF_PERICENTER": 72.8849, "MEAN_ANOMALY": 75.7464, "EPHEMERIS_TYPE": 0, "CLASSIFICATION_TYPE": "U", "NORAD_CAT_ID": 66887, "ELEMENT_SET_NO": 999, "REV_AT_EPOCH": 476, "BSTAR": -0.036164162, "MEAN_MOTION_DOT": -0.02047674, "MEAN_MOTION_DDOT": 0}, "tle": {"line1": "1 66887U 25283K   25361.25002315 -.02047674  00000+0 -36164-1 0  9992", "line2": "2 66887  53.1595   1.7483 0001367  72.8849  75.7464 15.53015591  4768"}}, "geometry": {"type": "Point", "coordinates": [127.48862135514032, 46.711570591578095]}}, {"type": "Feature", "properties": {"norad_id": 66888, "name": "STARLINK-35919", "group": "last-30-days", "lat": 45.75477296136968, "lon": 129.89444919921095, "alt_km": 405.2657132522427, "timestamp": "2025-12-27T13:34:48.008119+00:00", "meta": {"OBJECT_NAME": "STARLINK-35919", "OBJECT_ID": "2025-283L", "EPOCH": "2025-12-27T06:00:02.000160", "MEAN_MOTION": 15.53018808, "ECCENTRICITY": 0.00013497, "INCLINATION": 53.1594, "RA_OF_ASC_NODE": 1.7437, "ARG_OF_PERICENTER": 75.6138, "MEAN_ANOMALY": 74.9369, "EPHEMERIS_TYPE": 0, "CLASSIFICATION_TYPE": "U", "NORAD_CAT_ID": 66888, "ELEMENT_SET_NO": 999, "REV_AT_EPOCH": 476, "BSTAR": -0.036317291, "MEAN_MOTION_DOT": -0.0205561, "MEAN_MOTION_DDOT": 0}, "tle": {"line1": "1 66888U 25283L   25361.25002315 -.02055610  00000+0 -36317-1 0  9992", "line2": "2 66888  53.1594   1.7437 0001349  75.6138  74.9369 15.53018808  4768"}}, "geometry": {"type": "Point", "coordinates": [129.89444919921095, 45.75477296136968]}}, {"type": "Feature", "properties": {"norad_id": 66889, "name": "STARLINK-35852", "group": "last-30-days", "lat": 44.75153165144441, "lon": 132.2121992832435, "alt_km": 405.4767884197008, "timestamp": "2025-12-27T13:34:48.008129+00:00", "meta": {"OBJECT_NAME": "STARLINK-35852", "OBJECT_ID": "2025-283M", "EPOCH": "2025-12-27T06:00:02.000160", "MEAN_MOTION": 15.53016602, "ECCENTRICITY": 0.00013613, "INCLINATION": 53.1595, "RA_OF_ASC_NODE": 1.7394, "ARG_OF_PERICENTER": 69.8487, "MEAN_ANOMALY": 82.6152, "EPHEMERIS_TYPE": 0, "CLASSIFICATION_TYPE": "U", "NORAD_CAT_ID": 66889, "ELEMENT_SET_NO": 999, "REV_AT_EPOCH": 476, "BSTAR": -0.036193541, "MEAN_MOTION_DOT": -0.02049222, "MEAN_MOTION_DDOT": 0}, "tle": {"line1": "1 66889U 25283M   25361.25002315 -.02049222  00000+0 -36194-1 0  9998", "line2": "2 66889  53.1595   1.7394 0001361  69.8487  82.6152 15.53016602  4764"}}, "geometry": {"type": "Point", "coordinates": [132.2121992832435, 44.75153165144441]}}]}